MICROSAT-R DEB          
1 44134U 19006V   20046.50258033  .00052534  13960-5  67715-3 0  9992
2 44134  96.0416 237.1891 0548557  34.9007 328.6911 14.69298985 46890
MICROSAT-R DEB          
1 44147U 19006AJ  20046.47577308  .00173206  62731-5  14869-2 0  9992
2 44147  95.6961 223.9417 0440441  41.1932 322.1667 14.99682078 46521
MICROSAT-R DEB          
1 44154U 19006AR  20046.46224384  .00905558  15056-3  81201-2 0  9995
2 44154  96.6232 231.9214 0479180 164.4570 197.1975 14.90639406 43992
MICROSAT-R DEB          
1 44157U 19006AU  20022.22637609  .08272739  12302-5  32183-2 0  9998
2 44157  95.2971 198.4403 0047144  86.5286 274.1400 16.20930449 43340
MICROSAT-R DEB          
1 44160U 19006AX  20046.47840046  .00147790  38178-5  16234-2 0  9994
2 44160  95.2712 193.2209 0580861  85.4250 281.3037 14.65191678 45103
MICROSAT-R DEB          
1 44166U 19006BD  20045.89230442  .00320824  19991-4  27447-2 0  9998
2 44166  95.6371 208.4270 0412581  96.3054 268.5326 15.05624475 45016
MICROSAT-R DEB          
1 44203U 19006CP  20046.07725451  .00230258  20503-4  57183-3 0  9993
2 44203  96.0955 275.1108 0088279 242.8162 116.4095 15.89219986 48266
MICROSAT-R DEB          
1 44216U 19006CS  20046.37406212  .00755309  15400-5  36106-3 0  9993
2 44216  95.8973 274.5576 0041793 163.9303 196.4902 16.19084052 45797
MICROSAT-R DEB          
1 44217U 19006CT  20046.31439496  .01043079  16633-5  72095-3 0  9999
2 44217  96.1016 282.5704 0035423 215.6529 144.2701 16.14928675 45623
MICROSAT-R DEB          
1 44381U 19006DC  20045.11574754  .00058054  59887-6  80183-3 0  9999
2 44381  94.6377 166.1956 0730370 101.3015 267.1094 14.28750082 38785
MICROSAT-R DEB          
1 44382U 19006DD  20046.34911838  .00044346  12642-5  40263-3 0  9995
2 44382  94.6821 190.6637 0415990 313.7713  42.9782 15.03934949 41226
MICROSAT-R DEB          
1 44383U 19006DE  20045.90471141  .00065891  12602-5  11450-2 0  9994
2 44383  96.1773 217.4155 0864091 145.7626 220.2498 13.95693097 38269
MICROSAT-R DEB          
1 44463U 19006DM  20046.35683252  .00215834  63460-5  37868-2 0  9994
2 44463  95.8631 192.7726 0947477 204.2768 151.0853 13.77400001 31422
MICROSAT-R DEB          
1 44470U 19006DU  20046.32669508  .00590761  53453-4  66903-2 0  9994
2 44470  95.4238 192.3168 0617529 125.5067 240.5074 14.56715109 29808
